{"id":"301","name":"Moon ","centerId":"500@399","centerName":"Earth ","epoch":"2000-Jan-01 12:00:00.0000","elementTable":{"periapsis":357760211.4194355,"inclination":5.240273000309245,"longitudeOfAscendingNode":123.9580554371928,"argumentOfPeriapsis":308.9226727206595,"timeOfPeriapsis":2451533.992919727,"meanMotion":0.0001542286696286951,"meanAnomaly":146.6732747774804,"trueAnomaly":150.3997599893869,"apoapsis":405988838.2805416,"siderealOrbitPeriod":2334196.364830861,"semiMajorAxis":381874524.8499886,"semiMinorAxis":381112388.4330941,"semiLatusRectum":380351773.07057786,"eccentricity":0.06314721685094304,"linearEccentricity":24114313.4305529},"physicalDataTable":{"meanRadius":1737530,"mass":7.349e+22,"siderealRotationRate":0.0000026617,"siderealRotationPeriod":2360591.091099518,"gravParameter":4902800.066,"obliquity":6.67},"vectorTable":{"position":[-349926219.07273144,0,-198787698.2346196],"velocity":[-505.6455943356394,0,825.445549846799]}}
